IRIDIUM 921 [-]         
1 24873U 97034E   23228.11559436  .00010863  00000+0  44500-3 0  9991
2 24873  86.3835  77.5241 0005210   0.5940 359.5311 15.24149698428641
IRIDIUM 26 [-]          
1 24903U 97043A   23228.46046569  .00000502  00000+0  16620-3 0  9992
2 24903  86.3958  31.9868 0002234  95.9099 264.2353 14.35961862360926
IRIDIUM 22 [-]          
1 24907U 97043E   23229.46750768  .00000486  00000+0  16443-3 0  9994
2 24907  86.3957  34.5605 0002098  91.0841 269.0596 14.34874620360697
DUMMY MASS 1 [-]        
1 24925U 97048A   23228.13753314  .00000456  00000+0  49198-4 0  9993
2 24925  86.3305  85.3496 0007486  22.3349 337.8200 14.85788953405697
DUMMY MASS 2 [-]        
1 24926U 97048B   23228.12479620  .00000447  00000+0  48529-4 0  9995
2 24926  86.3305  86.8464 0008672  30.0607 330.1113 14.85551364405480
IRIDIUM 29 [-]          
1 24944U 97051A   23229.07919494  .00000467  00000+0  15627-3 0  9996
2 24944  86.3912  64.7485 0001886  87.3021 272.8391 14.35338847357331
IRIDIUM 33 [-]          
1 24946U 97051C   23229.45910650  .00000310  00000+0  10370-3 0  9992
2 24946  86.3828  63.8721 0009990 100.6481 259.5840 14.34086727356746
IRIDIUM 28 [-]          
1 24948U 97051E   23228.79526758  .00000436  00000+0  14270-3 0  9994
2 24948  86.3919  62.7667 0002467  93.6360 266.5119 14.36256226357658
